{
  "type": "FeatureCollection",
  "features": [
    {
      "type": "Feature",
      "properties": {
        "norad_id": 22675,
        "name": "COSMOS 2251",
        "group": "cosmos-2251-debris",
        "lat": 70.09987181542432,
        "lon": 19.565625683897782,
        "alt_km": 758.6638973723502,
        "timestamp": "2025-12-06T11:28:11.454570+00:00",
        "meta_object_name": "COSMOS 2251",
        "meta_object_id": "1993-036A",
        "meta_epoch": "2025-12-05T23:22:56.322336",
        "meta_mean_motion": 14.3320154,
        "meta_eccentricity": 0.00237558,
        "meta_inclination": 74.0393,
        "meta_ra_of_asc_node": 328.2458,
        "meta_arg_of_pericenter": 52.6284,
        "meta_mean_anomaly": 307.7026,
        "meta_ephemeris_type": 0,
        "meta_classification_type": "U",
        "meta_norad_cat_id": 22675,
        "meta_element_set_no": 999,
        "meta_rev_at_epoch": 69676,
        "meta_bstar": 9.1438856e-05,
        "meta_mean_motion_dot": 2.26e-06,
        "meta_mean_motion_ddot": 0,
        "tle_line1": "1 22675U 93036A   25339.97426299  .00000226  00000+0  91439-4 0  9992",
        "tle_line2": "2 22675  74.0393 328.2458 0023755  52.6284 307.7026 14.33201540696763"
      },
      "geometry": {
        "type": "Point",
        "coordinates": [
          19.565625683897782,
          70.09987181542432
        ]
      }
    },
    {
      "type": "Feature",
      "properties": {
        "norad_id": 33757,
        "name": "COSMOS 2251 DEB",
        "group": "cosmos-2251-debris",
        "lat": 46.60601121294764,
        "lon": 137.41991023882906,
        "alt_km": 787.0474980462686,
        "timestamp": "2025-12-06T11:28:11.454595+00:00",
        "meta_object_name": "COSMOS 2251 DEB",
        "meta_object_id": "1993-036E",
        "meta_epoch": "2025-12-05T11:57:56.758176",
        "meta_mean_motion": 14.32578114,
        "meta_eccentricity": 0.00149764,
        "meta_inclination": 74.0366,
        "meta_ra_of_asc_node": 336.83,
        "meta_arg_of_pericenter": 351.492,
        "meta_mean_anomaly": 130.5422,
        "meta_ephemeris_type": 0,
        "meta_classification_type": "U",
        "meta_norad_cat_id": 33757,
        "meta_element_set_no": 999,
        "meta_rev_at_epoch": 87892,
        "meta_bstar": 8.1474202e-05,
        "meta_mean_motion_dot": 1.95e-06,
        "meta_mean_motion_ddot": 0,
        "tle_line1": "1 33757U 93036E   25339.49857359  .00000195  00000+0  81474-4 0  9990",
        "tle_line2": "2 33757  74.0366 336.8300 0014976 351.4920 130.5422 14.32578114878924"
      },
      "geometry": {
        "type": "Point",
        "coordinates": [
          137.41991023882906,
          46.60601121294764
        ]
      }
    },
    {
      "type": "Feature",
      "properties": {
        "norad_id": 33758,
        "name": "COSMOS 2251 DEB",
        "group": "cosmos-2251-debris",
        "lat": 8.32254197064194,
        "lon": -130.77506878943066,
        "alt_km": 718.8315090583956,
        "timestamp": "2025-12-06T11:28:11.454610+00:00",
        "meta_object_name": "COSMOS 2251 DEB",
        "meta_object_id": "1993-036F",
        "meta_epoch": "2025-12-05T23:55:28.207200",
        "meta_mean_motion": 14.51529309,
        "meta_eccentricity": 0.00175416,
        "meta_inclination": 74.0286,
        "meta_ra_of_asc_node": 227.7294,
        "meta_arg_of_pericenter": 295.0165,
        "meta_mean_anomaly": 80.821,
        "meta_ephemeris_type": 0,
        "meta_classification_type": "U",
        "meta_norad_cat_id": 33758,
        "meta_element_set_no": 999,
        "meta_rev_at_epoch": 88207,
        "meta_bstar": 0.0014905104,
        "meta_mean_motion_dot": 5.951e-05,
        "meta_mean_motion_ddot": 0,
        "tle_line1": "1 33758U 93036F   25339.99685425  .00005951  00000+0  14905-2 0  9997",
        "tle_line2": "2 33758  74.0286 227.7294 0017541 295.0165  80.8210 14.51529309882077"
      },
      "geometry": {
        "type": "Point",
        "coordinates": [
          -130.77506878943066,
          8.32254197064194
        ]
      }
    },
    {
      "type": "Feature",
      "properties": {
        "norad_id": 33760,
        "name": "COSMOS 2251 DEB",
        "group": "cosmos-2251-debris",
        "lat": -49.15954590953545,
        "lon": -86.39561912126399,
        "alt_km": 778.0985148060163,
        "timestamp": "2025-12-06T11:28:11.454624+00:00",
        "meta_object_name": "COSMOS 2251 DEB",
        "meta_object_id": "1993-036H",
        "meta_epoch": "2025-12-05T22:35:32.628768",
        "meta_mean_motion": 14.35665187,
        "meta_eccentricity": 0.00195788,
        "meta_inclination": 74.0317,
        "meta_ra_of_asc_node": 293.9331,
        "meta_arg_of_pericenter": 34.2049,
        "meta_mean_anomaly": 22.1528,
        "meta_ephemeris_type": 0,
        "meta_classification_type": "U",
        "meta_norad_cat_id": 33760,
        "meta_element_set_no": 999,
        "meta_rev_at_epoch": 88027,
        "meta_bstar": 0.00020324462,
        "meta_mean_motion_dot": 5.62e-06,
        "meta_mean_motion_ddot": 0,
        "tle_line1": "1 33760U 93036H   25339.94134987  .00000562  00000+0  20324-3 0  9993",
        "tle_line2": "2 33760  74.0317 293.9331 0019578  34.2049  22.1528 14.35665187880276"
      },
      "geometry": {
        "type": "Point",
        "coordinates": [
          -86.39561912126399,
          -49.15954590953545
        ]
      }
    },
    {
      "type": "Feature",
      "properties": {
        "norad_id": 33761,
        "name": "COSMOS 2251 DEB",
        "group": "cosmos-2251-debris",
        "lat": 72.56727831037212,
        "lon": -30.499215431183483,
        "alt_km": 745.1310460559789,
        "timestamp": "2025-12-06T11:28:11.454635+00:00",
        "meta_object_name": "COSMOS 2251 DEB",
        "meta_object_id": "1993-036J",
        "meta_epoch": "2025-12-04T21:04:01.127712",
        "meta_mean_motion": 14.42504735,
        "meta_eccentricity": 0.0022795,
        "meta_inclination": 74.037,
        "meta_ra_of_asc_node": 266.7483,
        "meta_arg_of_pericenter": 348.175,
        "meta_mean_anomaly": 68.3837,
        "meta_ephemeris_type": 0,
        "meta_classification_type": "U",
        "meta_norad_cat_id": 33761,
        "meta_element_set_no": 999,
        "meta_rev_at_epoch": 88121,
        "meta_bstar": 0.0010906,
        "meta_mean_motion_dot": 3.601e-05,
        "meta_mean_motion_ddot": 0,
        "tle_line1": "1 33761U 93036J   25338.87779083  .00003601  00000+0  10906-2 0  9998",
        "tle_line2": "2 33761  74.0370 266.7483 0022795 348.1750  68.3837 14.42504735881212"
      },
      "geometry": {
        "type": "Point",
        "coordinates": [
          -30.499215431183483,
          72.56727831037212
        ]
      }
    },
    {
      "type": "Feature",
      "properties": {
        "norad_id": 33762,
        "name": "COSMOS 2251 DEB",
        "group": "cosmos-2251-debris",
        "lat": -63.56335058529591,
        "lon": -73.65969623703484,
        "alt_km": 786.9876716183417,
        "timestamp": "2025-12-06T11:28:11.454646+00:00",
        "meta_object_name": "COSMOS 2251 DEB",
        "meta_object_id": "1993-036K",
        "meta_epoch": "2025-12-05T09:41:34.875168",
        "meta_mean_motion": 14.33660147,
        "meta_eccentricity": 0.00147068,
        "meta_inclination": 74.0413,
        "meta_ra_of_asc_node": 323.4392,
        "meta_arg_of_pericenter": 27.0806,
        "meta_mean_anomaly": 123.4274,
        "meta_ephemeris_type": 0,
        "meta_classification_type": "U",
        "meta_norad_cat_id": 33762,
        "meta_element_set_no": 999,
        "meta_rev_at_epoch": 87942,
        "meta_bstar": 9.1278659e-05,
        "meta_mean_motion_dot": 2.27e-06,
        "meta_mean_motion_ddot": 0,
        "tle_line1": "1 33762U 93036K   25339.40387587  .00000227  00000+0  91279-4 0  9998",
        "tle_line2": "2 33762  74.0413 323.4392 0014706  27.0806 123.4274 14.33660147879427"
      },
      "geometry": {
        "type": "Point",
        "coordinates": [
          -73.65969623703484,
          -63.56335058529591
        ]
      }
    },
    {
      "type": "Feature",
      "properties": {
        "norad_id": 33764,
        "name": "COSMOS 2251 DEB",
        "group": "cosmos-2251-debris",
        "lat": -56.356301855197195,
        "lon": -101.25855914133952,
        "alt_km": 755.5524640785698,
        "timestamp": "2025-12-06T11:28:11.454656+00:00",
        "meta_object_name": "COSMOS 2251 DEB",
        "meta_object_id": "1993-036M",
        "meta_epoch": "2025-12-05T22:41:08.697120",
        "meta_mean_motion": 14.39486367,
        "meta_eccentricity": 0.00242137,
        "meta_inclination": 74.0345,
        "meta_ra_of_asc_node": 285.2031,
        "meta_arg_of_pericenter": 252.1055,
        "meta_mean_anomaly": 168.4884,
        "meta_ephemeris_type": 0,
        "meta_classification_type": "U",
        "meta_norad_cat_id": 33764,
        "meta_element_set_no": 999,
        "meta_rev_at_epoch": 88059,
        "meta_bstar": 0.00069684607,
        "meta_mean_motion_dot": 2.153e-05,
        "meta_mean_motion_ddot": 0,
        "tle_line1": "1 33764U 93036M   25339.94523955  .00002153  00000+0  69685-3 0  9995",
        "tle_line2": "2 33764  74.0345 285.2031 0024213 252.1055 168.4884 14.39486367880591"
      },
      "geometry": {
        "type": "Point",
        "coordinates": [
          -101.25855914133952,
          -56.356301855197195
        ]
      }
    }
  ]
}